ATLAS CENTAUR 2         
1 00694U 63047A   25311.86038905  .00005556  00000+0  67591-3 0  9991
2 00694  30.3503 156.2358 0550127  87.0062 279.3322 14.11414535114393
THOR AGENA D R/B        
1 00733U 64002A   25311.76397986  .00000364  00000+0  14729-3 0  9990
2 00733  99.1221 313.4900 0031950 253.0612 106.7068 14.33928681220823
SL-3 R/B                
1 00877U 64053B   25311.80501414  .00000544  00000+0  13063-3 0  9993
2 00877  65.0774 328.5329 0070581 332.2105  27.5231 14.61217759248986
SL-8 R/B                
1 02802U 67045B   25311.84285142  .00000540  00000+0  15717-3 0  9992
2 02802  74.0112 215.6209 0065582 252.5985 106.7994 14.45495856 71416
SL-8 R/B                
1 03230U 68040B   25311.68037227  .00005328  00000+0  40510-3 0  9993
2 03230  74.0315 202.7934 0023491  54.7616 305.5766 15.02177598 71684
OAO 2                   
1 03597U 68110A   25311.46427707  .00000418  00000+0  11806-3 0  9990
2 03597  34.9930 227.5883 0006154 293.4697  66.5347 14.47210258  1382
ISIS 1                  
1 03669U 69009A   25311.56932712  .00000247  00000+0  17530-3 0  9996
2 03669  88.4525 168.6410 1707693 335.7651  17.1418 11.30334235334734
SERT 2                  
1 04327U 70009A   25311.82233031  .00000014  00000+0  75403-4 0  9993
2 04327  99.2588 256.6806 0005562 111.3136 276.3344 13.58710977763346
SL-3 R/B                
1 05118U 71028B   25311.75802659  .00038000  00000+0  62352-3 0  9998
2 05118  81.2405 201.5231 0022290   8.1823 351.9783 15.51965998969703
ASTEX 1                 
1 05560U 71089A   25311.73154697  .00000911  00000+0  23243-3 0  9992
2 05560  92.7120 112.2983 0017272 131.2949 228.9747 14.50574014844627
SL-8 R/B                
1 05730U 71119B   25311.69795436  .00009350  00000+0  49666-3 0  9995
2 05730  73.8898  43.2393 0561297  34.6532 328.9875 14.34872086637974
OAO 3 (COPERNICUS)      
1 06153U 72065A   25310.90117861  .00000574  00000+0  12240-3 0  9996
2 06153  35.0057 276.8176 0007238 238.4471 146.9095 14.59857321828246
