CCSDS_OMM_VERS = 2.0
CREATION_DATE  = 
ORIGINATOR     = 

OBJECT_NAME    = ATLAS CENTAUR 2
OBJECT_ID      = 1963-047A
CENTER_NAME    = EARTH
REF_FRAME      = TEME
TIME_SYSTEM    = UTC
MEAN_ELEMENT_THEORY = SGP/SGP4

EPOCH          = 2025-11-07T20:38:57.613920
MEAN_MOTION    = 14.11414535
ECCENTRICITY   = .0550127
INCLINATION    = 30.3503
RA_OF_ASC_NODE = 156.2358
ARG_OF_PERICENTER = 87.0062
MEAN_ANOMALY   = 279.3322

EPHEMERIS_TYPE = 0
CLASSIFICATION_TYPE = U
NORAD_CAT_ID   = 694
ELEMENT_SET_NO = 999
REV_AT_EPOCH   = 11439
BSTAR          = .67591E-3
MEAN_MOTION_DOT = .5556E-4
MEAN_MOTION_DDOT = 0

CCSDS_OMM_VERS = 2.0
CREATION_DATE  = 
ORIGINATOR     = 

OBJECT_NAME    = THOR AGENA D R/B
OBJECT_ID      = 1964-002A
CENTER_NAME    = EARTH
REF_FRAME      = TEME
TIME_SYSTEM    = UTC
MEAN_ELEMENT_THEORY = SGP/SGP4

EPOCH          = 2025-11-07T18:20:07.859904
MEAN_MOTION    = 14.33928681
ECCENTRICITY   = .003195
INCLINATION    = 99.1221
RA_OF_ASC_NODE = 313.4900
ARG_OF_PERICENTER = 253.0612
MEAN_ANOMALY   = 106.7068

EPHEMERIS_TYPE = 0
CLASSIFICATION_TYPE = U
NORAD_CAT_ID   = 733
ELEMENT_SET_NO = 999
REV_AT_EPOCH   = 22082
BSTAR          = .14729E-3
MEAN_MOTION_DOT = .364E-5
MEAN_MOTION_DDOT = 0

CCSDS_OMM_VERS = 2.0
CREATION_DATE  = 
ORIGINATOR     = 

OBJECT_NAME    = SL-3 R/B
OBJECT_ID      = 1964-053B
CENTER_NAME    = EARTH
REF_FRAME      = TEME
TIME_SYSTEM    = UTC
MEAN_ELEMENT_THEORY = SGP/SGP4

EPOCH          = 2025-11-07T19:19:13.221696
MEAN_MOTION    = 14.61217759
ECCENTRICITY   = .0070581
INCLINATION    = 65.0774
RA_OF_ASC_NODE = 328.5329
ARG_OF_PERICENTER = 332.2105
MEAN_ANOMALY   = 27.5231

EPHEMERIS_TYPE = 0
CLASSIFICATION_TYPE = U
NORAD_CAT_ID   = 877
ELEMENT_SET_NO = 999
REV_AT_EPOCH   = 24898
BSTAR          = .13063E-3
MEAN_MOTION_DOT = .544E-5
MEAN_MOTION_DDOT = 0

CCSDS_OMM_VERS = 2.0
CREATION_DATE  = 
ORIGINATOR     = 

OBJECT_NAME    = SL-8 R/B
OBJECT_ID      = 1967-045B
CENTER_NAME    = EARTH
REF_FRAME      = TEME
TIME_SYSTEM    = UTC
MEAN_ELEMENT_THEORY = SGP/SGP4

EPOCH          = 2025-11-07T20:13:42.362688
MEAN_MOTION    = 14.45495856
ECCENTRICITY   = .0065582
INCLINATION    = 74.0112
RA_OF_ASC_NODE = 215.6209
ARG_OF_PERICENTER = 252.5985
MEAN_ANOMALY   = 106.7994

EPHEMERIS_TYPE = 0
CLASSIFICATION_TYPE = U
NORAD_CAT_ID   = 2802
ELEMENT_SET_NO = 999
REV_AT_EPOCH   = 7141
BSTAR          = .15717E-3
MEAN_MOTION_DOT = .54E-5
MEAN_MOTION_DDOT = 0

CCSDS_OMM_VERS = 2.0
CREATION_DATE  = 
ORIGINATOR     = 

OBJECT_NAME    = SL-8 R/B
OBJECT_ID      = 1968-040B
CENTER_NAME    = EARTH
REF_FRAME      = TEME
TIME_SYSTEM    = UTC
MEAN_ELEMENT_THEORY = SGP/SGP4

EPOCH          = 2025-11-07T16:19:44.164128
MEAN_MOTION    = 15.02177598
ECCENTRICITY   = .0023491
INCLINATION    = 74.0315
RA_OF_ASC_NODE = 202.7934
ARG_OF_PERICENTER = 54.7616
MEAN_ANOMALY   = 305.5766

EPHEMERIS_TYPE = 0
CLASSIFICATION_TYPE = U
NORAD_CAT_ID   = 3230
ELEMENT_SET_NO = 999
REV_AT_EPOCH   = 7168
BSTAR          = .4051E-3
MEAN_MOTION_DOT = .5328E-4
MEAN_MOTION_DDOT = 0

CCSDS_OMM_VERS = 2.0
CREATION_DATE  = 
ORIGINATOR     = 

OBJECT_NAME    = OAO 2
OBJECT_ID      = 1968-110A
CENTER_NAME    = EARTH
REF_FRAME      = TEME
TIME_SYSTEM    = UTC
MEAN_ELEMENT_THEORY = SGP/SGP4

EPOCH          = 2025-11-07T11:08:33.538848
MEAN_MOTION    = 14.47210258
ECCENTRICITY   = .0006154
INCLINATION    = 34.9930
RA_OF_ASC_NODE = 227.5883
ARG_OF_PERICENTER = 293.4697
MEAN_ANOMALY   = 66.5347

EPHEMERIS_TYPE = 0
CLASSIFICATION_TYPE = U
NORAD_CAT_ID   = 3597
ELEMENT_SET_NO = 999
REV_AT_EPOCH   = 138
BSTAR          = .11806E-3
MEAN_MOTION_DOT = .418E-5
MEAN_MOTION_DDOT = 0

CCSDS_OMM_VERS = 2.0
CREATION_DATE  = 
ORIGINATOR     = 

OBJECT_NAME    = ISIS 1
OBJECT_ID      = 1969-009A
CENTER_NAME    = EARTH
REF_FRAME      = TEME
TIME_SYSTEM    = UTC
MEAN_ELEMENT_THEORY = SGP/SGP4

EPOCH          = 2025-11-07T13:39:49.863168
MEAN_MOTION    = 11.30334235
ECCENTRICITY   = .1707693
INCLINATION    = 88.4525
RA_OF_ASC_NODE = 168.6410
ARG_OF_PERICENTER = 335.7651
MEAN_ANOMALY   = 17.1418

EPHEMERIS_TYPE = 0
CLASSIFICATION_TYPE = U
NORAD_CAT_ID   = 3669
ELEMENT_SET_NO = 999
REV_AT_EPOCH   = 33473
BSTAR          = .1753E-3
MEAN_MOTION_DOT = .247E-5
MEAN_MOTION_DDOT = 0

CCSDS_OMM_VERS = 2.0
CREATION_DATE  = 
ORIGINATOR     = 

OBJECT_NAME    = SERT 2
OBJECT_ID      = 1970-009A
CENTER_NAME    = EARTH
REF_FRAME      = TEME
TIME_SYSTEM    = UTC
MEAN_ELEMENT_THEORY = SGP/SGP4

EPOCH          = 2025-11-07T19:44:09.338784
MEAN_MOTION    = 13.58710977
ECCENTRICITY   = .0005562
INCLINATION    = 99.2588
RA_OF_ASC_NODE = 256.6806
ARG_OF_PERICENTER = 111.3136
MEAN_ANOMALY   = 276.3344

EPHEMERIS_TYPE = 0
CLASSIFICATION_TYPE = U
NORAD_CAT_ID   = 4327
ELEMENT_SET_NO = 999
REV_AT_EPOCH   = 76334
BSTAR          = .75403E-4
MEAN_MOTION_DOT = .14E-6
MEAN_MOTION_DDOT = 0

CCSDS_OMM_VERS = 2.0
CREATION_DATE  = 
ORIGINATOR     = 

OBJECT_NAME    = SL-3 R/B
OBJECT_ID      = 1971-028B
CENTER_NAME    = EARTH
REF_FRAME      = TEME
TIME_SYSTEM    = UTC
MEAN_ELEMENT_THEORY = SGP/SGP4

EPOCH          = 2025-11-07T18:11:33.497376
MEAN_MOTION    = 15.51965998
ECCENTRICITY   = .002229
INCLINATION    = 81.2405
RA_OF_ASC_NODE = 201.5231
ARG_OF_PERICENTER = 8.1823
MEAN_ANOMALY   = 351.9783

EPHEMERIS_TYPE = 0
CLASSIFICATION_TYPE = U
NORAD_CAT_ID   = 5118
ELEMENT_SET_NO = 999
REV_AT_EPOCH   = 96970
BSTAR          = .62352E-3
MEAN_MOTION_DOT = .38E-3
MEAN_MOTION_DDOT = 0

CCSDS_OMM_VERS = 2.0
CREATION_DATE  = 
ORIGINATOR     = 

OBJECT_NAME    = ASTEX 1
OBJECT_ID      = 1971-089A
CENTER_NAME    = EARTH
REF_FRAME      = TEME
TIME_SYSTEM    = UTC
MEAN_ELEMENT_THEORY = SGP/SGP4

EPOCH          = 2025-11-07T17:33:25.658208
MEAN_MOTION    = 14.50574014
ECCENTRICITY   = .0017272
INCLINATION    = 92.7120
RA_OF_ASC_NODE = 112.2983
ARG_OF_PERICENTER = 131.2949
MEAN_ANOMALY   = 228.9747

EPHEMERIS_TYPE = 0
CLASSIFICATION_TYPE = U
NORAD_CAT_ID   = 5560
ELEMENT_SET_NO = 999
REV_AT_EPOCH   = 84462
BSTAR          = .23243E-3
MEAN_MOTION_DOT = .911E-5
MEAN_MOTION_DDOT = 0

CCSDS_OMM_VERS = 2.0
CREATION_DATE  = 
ORIGINATOR     = 

OBJECT_NAME    = SL-8 R/B
OBJECT_ID      = 1971-119B
CENTER_NAME    = EARTH
REF_FRAME      = TEME
TIME_SYSTEM    = UTC
MEAN_ELEMENT_THEORY = SGP/SGP4

EPOCH          = 2025-11-07T16:45:03.256704
MEAN_MOTION    = 14.34872086
ECCENTRICITY   = .0561297
INCLINATION    = 73.8898
RA_OF_ASC_NODE = 43.2393
ARG_OF_PERICENTER = 34.6532
MEAN_ANOMALY   = 328.9875

EPHEMERIS_TYPE = 0
CLASSIFICATION_TYPE = U
NORAD_CAT_ID   = 5730
ELEMENT_SET_NO = 999
REV_AT_EPOCH   = 63797
BSTAR          = .49666E-3
MEAN_MOTION_DOT = .935E-4
MEAN_MOTION_DDOT = 0

CCSDS_OMM_VERS = 2.0
CREATION_DATE  = 
ORIGINATOR     = 

OBJECT_NAME    = OAO 3 (COPERNICUS)
OBJECT_ID      = 1972-065A
CENTER_NAME    = EARTH
REF_FRAME      = TEME
TIME_SYSTEM    = UTC
MEAN_ELEMENT_THEORY = SGP/SGP4

EPOCH          = 2025-11-06T21:37:41.831904
MEAN_MOTION    = 14.59857321
ECCENTRICITY   = .0007238
INCLINATION    = 35.0057
RA_OF_ASC_NODE = 276.8176
ARG_OF_PERICENTER = 238.4471
MEAN_ANOMALY   = 146.9095

EPHEMERIS_TYPE = 0
CLASSIFICATION_TYPE = U
NORAD_CAT_ID   = 6153
ELEMENT_SET_NO = 999
REV_AT_EPOCH   = 82824
BSTAR          = .1224E-3
MEAN_MOTION_DOT = .574E-5
MEAN_MOTION_DDOT = 0

